IRIDIUM 36 [-]          
1 24967U 97056C   23247.29423455  .00000489  00000+0  16029-3 0  9998
2 24967  86.3912  86.6891 0001981  83.2574 276.8848 14.36379588358604
IRIDIUM 39 [-]          
1 25042U 97069D   23247.43114695  .00000670  00000+0  17731-3 0  9999
2 25042  86.3930 130.2542 0017387 326.9181  33.0933 14.47334056354636
IRIDIUM 38 [-]          
1 25043U 97069E   23247.25401707  .00000474  00000+0  15362-3 0  9993
2 25043  86.4009 147.2065 0004301  88.5718 271.5971 14.36861252352306
IRIDIUM 42 [-]          
1 25077U 97077A   23247.45628069  .00000503  00000+0  16923-3 0  9990
2 25077  86.4021 152.4914 0002835  85.2327 274.9193 14.35180411347686
IRIDIUM 44 [-]          
1 25078U 97077B   23247.41093935  .00000501  00000+0  15611-3 0  9996
2 25078  86.3982 136.2049 0003255  50.7270 309.4216 14.38961525349938
IRIDIUM 45 [-]          
1 25104U 97082A   23247.59130038  .00012793  00000+0  84542-3 0  9992
2 25104  86.3826 355.8643 0182779 194.7375 164.8488 14.94510854353934
IRIDIUM 24 [-]          
1 25105U 97082B   23247.71182475  .00000623  00000+0  18879-3 0  9998
2 25105  86.3971 356.1427 0013587  72.4163 287.8519 14.40707962349628
IRIDIUM 51 [-]          
1 25262U 98018A   23247.74564088  .00017378  00000+0  98583-3 0  9994
2 25262  86.3989   6.4261 0169869 150.5002 210.5952 15.01314510348520
